id,address_line_1,address_line_2,city,state,zip,country
1,67863 Ridgeview Terrace,Apt 1653,Zhuangshi,,,CN
2,95 Summerview Crossing,14th Floor,Araçoiaba da Serra,,18190-000,BR
3,50247 Knutson Road,Apt 141,Báguanos,,,CU
4,4295 Elmside Center,Room 1988,Shināş,,,OM
5,9 Brickson Park Crossing,Room 1206,Lefortovo,,461911,RU
6,25993 Troy Plaza,Room 929,Põltsamaa,,,EE
7,78 Brickson Park Drive,20th Floor,Nové Strašecí,,271 01,CZ
8,8 Heffernan Road,Suite 85,Pondokrejo Wetan,,,ID
9,87 Alpine Terrace,Room 831,Dadapan,,,ID
10,6 Petterle Court,Suite 27,Piteå,BD,941 28,SE
11,1358 Welch Trail,Suite 9,Amherst,NS,B4H,CA
12,3315 Oxford Pass,9th Floor,Sinop,,78550-000,BR
13,6251 Magdeline Way,Suite 62,La Uvita,,150867,CO
14,189 Mcbride Point,Apt 617,Kinlough,,F94,IE
15,32 Dennis Circle,17th Floor,Voyinka,,,UA
16,63 Blaine Hill,Apt 1784,Ust’-Donetskiy,,346550,RU
17,5821 Washington Crossing,19th Floor,28 de Noviembre,,9407,AR
18,2 Randy Junction,18th Floor,Wangtuan,,,CN
19,3 Declaration Place,9th Floor,Nizhniy Novgorod,,603098,RU
20,6266 Moland Court,5th Floor,Chư Sê,,,VN
21,1 Alpine Lane,16th Floor,Macari,,,PE
22,313 Buena Vista Court,Apt 1062,Liozon,,6043,PH
23,9 Sutherland Terrace,Suite 14,Kunting,,,GM
24,6 Raven Terrace,Room 1787,Bijeli,,,ID
25,85 Judy Junction,Apt 1514,Puutura,,,ID
26,2407 Kensington Court,PO Box 50212,Detroit,MI,48232,US
27,04 Alpine Street,Suite 15,Huafeng,,,CN
28,9185 Northfield Avenue,Suite 38,Liuhuang,,,CN
29,2 Fieldstone Way,Suite 82,Shizikeng,,,CN
30,6595 Lien Hill,PO Box 75308,Shangtian,,,CN
31,08 Longview Road,Suite 33,Verin Dvin,,,AM
32,6 Spaight Court,Suite 21,Besançon,A6,25024 CEDEX,FR
33,0 Reinke Junction,Room 110,Tiantai,,,CN
34,23026 North Trail,PO Box 38288,Venezuela,,,CU
35,2567 Goodland Place,Room 1623,Ponte,13,4610-475,PT
36,744 Oriole Junction,Suite 95,Shanhe,,,CN
37,0842 Moland Center,14th Floor,Abha,,,SA
38,68726 Forest Road,Room 795,Lamphun,,51000,TH
39,0779 Anderson Junction,PO Box 54939,Sukodono,,,ID
40,6 Charing Cross Circle,11th Floor,Corona,CA,92883,US
41,14207 Colorado Plaza,Room 1660,Can-asujan,,8715,PH
42,67431 Banding Alley,19th Floor,Ruilin,,,CN
43,201 Eagan Circle,Suite 42,Akankpa,,,NG
44,6 Warrior Point,Apt 330,Pidhaytsi,,,UA
45,70 Westridge Parkway,16th Floor,Nartkala,,361336,RU
46,4 Tennessee Junction,20th Floor,La Talaudière,B9,42355 CEDEX,FR
47,9771 Almo Lane,Apt 1290,Sylhet,,3109,BD
48,4967 Westend Center,Apt 1436,Bailingnao,,,CN
49,122 Jenifer Park,Apt 100,Makoba,,,BW
50,28674 Spohn Pass,PO Box 34179,Loudun,B7,86206 CEDEX,FR
51,190 John Wall Terrace,PO Box 9356,Cigenca,,,ID
52,80426 Alpine Crossing,PO Box 23124,Mityana,,,UG
53,049 Jenna Park,Apt 594,Balabag,,5001,PH
54,85 Derek Terrace,Apt 396,Candoni,,6110,PH
55,3869 Crowley Place,Apt 1579,Maizuru,,626-0072,JP
56,69 Schlimgen Court,Apt 224,Bergerac,97,24111 CEDEX,FR
57,811 Artisan Point,Suite 95,Itapuranga,,76680-000,BR
58,147 Charing Cross Way,Apt 1481,Olafulihaa,,,ID
59,5273 Oak Junction,Room 1993,Agua Blanca,,22004,GT
60,625 Old Gate Junction,Room 1194,Zamora,,,HN
61,31401 Ridge Oak Point,Apt 1895,Flying Fish Cove,,,CX
62,64085 Corscot Trail,Apt 103,Paris 13,A8,75643 CEDEX 13,FR
63,23 Calypso Drive,9th Floor,Polo,,,ID
64,71095 Cambridge Crossing,Suite 85,Kosonsoy Shahri,,,UZ
65,486 Londonderry Circle,19th Floor,Nabīnagar,,3410,BD
66,79976 Di Loreto Point,PO Box 88741,Leon,CL,24010,ES
67,2800 Aberg Avenue,PO Box 67726,Huzhen,,,CN
68,0146 Jana Park,Suite 6,Moratuwa,,10400,LK
69,81 Banding Junction,6th Floor,Monjas,,21006,GT
70,3 Larry Plaza,PO Box 55592,Vejprnice,,330 27,CZ
71,2 Gateway Plaza,Apt 1952,Nancy,B2,54046 CEDEX,FR
72,6707 Fulton Park,Room 1328,Phon Charoen,,43180,TH
73,9 Mifflin Point,Apt 330,Shahrak-e Bākharz,,,IR
74,158 Helena Trail,Apt 946,Castlebellingham,,Y34,IE
75,54 Meadow Valley Alley,Suite 10,Ylöjärvi,,33480,FI
76,4472 Hoepker Junction,Suite 85,Saint-Denis,RE,97717 CEDEX 9,RE
77,75817 3rd Pass,Apt 1300,Káto Miliá,,,GR
78,7084 Dayton Avenue,12th Floor,Podporozh’ye,,187789,RU
79,9 Merrick Parkway,Apt 1403,Macari,,,PE
80,647 Farmco Hill,Apt 1471,Międzyzdroje,,72-500,PL
81,712 Sunnyside Street,Suite 20,Maraã,,69490-000,BR
82,2 Vernon Park,9th Floor,Taliouine,,,MA
83,36418 International Road,Suite 71,Piippola,,92620,FI
84,9434 Sundown Street,PO Box 8698,Huangjinbu,,,CN
85,005 Dovetail Court,Apt 1141,Gómez,,,PA
86,4 Jackson Crossing,PO Box 61458,Kushikino,,899-2433,JP
87,2 Canary Center,Suite 3,Zall-Herr,,,AL
88,24 Del Sol Trail,7th Floor,Estrada,3,4755-046,PT
89,4088 Schurz Plaza,Suite 50,Vallenar,,,CL
90,23620 Buhler Alley,PO Box 26090,Hamberang Sabrang,,,ID
91,68184 Carberry Alley,Room 16,Yanglinwei,,,CN
92,659 Vermont Place,Apt 864,Belgorod,,309271,RU
93,529 Bashford Alley,Suite 71,Liurenba,,,CN
94,9135 Merry Trail,PO Box 81503,Göteborg,O,417 02,SE
95,5247 Nevada Court,13th Floor,Langarūd,,,IR
96,073 Oriole Place,17th Floor,Núi Sập,,,VN
97,0 Melrose Plaza,20th Floor,Goragorskiy,,366818,RU
98,16653 Green Ridge Road,Room 274,Cibeureum,,,ID
99,380 Norway Maple Circle,Apt 900,Munse,,,ID
100,799 Corben Road,6th Floor,Xinglongchang,,,CN
101,56 Hallows Pass,PO Box 81542,Soldato-Aleksandrovskoye,,357920,RU
102,5400 Claremont Court,PO Box 64345,Bedayu,,,ID
103,07453 Duke Hill,Suite 36,Vostryakovo,,140579,RU
104,593 Cambridge Drive,Room 659,Houba,,,CN
105,14774 Aberg Trail,4th Floor,General Manuel J. Campos,,6309,AR
106,48596 Harper Pass,Suite 63,Longwu,,,CN
107,73617 Riverside Pass,Apt 411,Trŭn,,2477,BG
108,5821 Lakeland Hill,20th Floor,Albi,B3,81028 CEDEX 9,FR
109,513 Corscot Hill,Room 265,Krebet,,,ID
110,375 Crownhardt Place,9th Floor,Cibungur,,,ID
111,6 Hazelcrest Way,PO Box 37946,San Juan de Colón,,,VE
112,72 Brentwood Point,PO Box 96343,Vårby,AB,143 31,SE
113,705 Summerview Court,Suite 94,Tögrög,,,MN
114,5 Bay Alley,17th Floor,Cibeureum,,,ID
115,83651 Blackbird Avenue,PO Box 23841,Gračac,,23440,HR
116,5 Cody Junction,Suite 19,Huifeng,,,CN
117,8643 Kings Trail,12th Floor,Pedreira,,13920-000,BR
118,649 Village Green Pass,Room 502,Leone,,96799,AS
119,7951 Sauthoff Trail,Apt 436,Mercaderes,,195069,CO
120,721 Crownhardt Pass,Suite 71,Sujiazhuang,,,CN
121,8 Crescent Oaks Road,Room 590,Poigar,,,ID
122,428 Grasskamp Court,Room 282,‘Afrīn,,,SY
123,0 Drewry Park,14th Floor,Yläne,,21901,FI
124,2 Ridgeview Crossing,15th Floor,Jakusko,,,NG
125,26 Forest Dale Point,Apt 868,Shabo,,,UA
126,77 Muir Parkway,PO Box 28270,Jakhaly,,,GM
127,11 Dorton Crossing,PO Box 80358,Ketanggi,,,ID
128,623 Namekagon Point,Room 312,Palebunan,,,ID
129,34893 Cascade Point,Suite 54,Timbó,,89120-000,BR
130,13901 Lindbergh Plaza,Suite 6,Rakitovo,,4644,BG
131,3812 Prentice Avenue,4th Floor,Heimahe,,,CN
132,15 Havey Hill,16th Floor,Gongchenqiao,,,CN
133,9 Sheridan Street,Room 1044,Calangain,,2005,PH
134,6 Merchant Crossing,Suite 32,Talā,,,EG
135,7 Old Shore Point,19th Floor,Whakatane,,3158,NZ
136,26752 Harper Drive,Apt 1716,Chenxiang,,,CN
137,6 Glacier Hill Point,17th Floor,Hampang,,,ID
138,3 Blaine Hill,PO Box 35009,Loreto,,8507,PH
139,11414 Lakewood Gardens Court,PO Box 46457,Solna,AB,170 77,SE
140,13193 Stang Park,Apt 1815,San Francisco,,8501,PH
141,240 Manley Hill,PO Box 39410,Guazacapán,,6011,GT
142,21 Homewood Center,Suite 42,Chrysó,,,GR
143,09 Montana Alley,PO Box 92725,Balayang,,5800,PH
144,502 Lighthouse Bay Circle,PO Box 59276,Dmitriyevskoye,,356041,RU
145,99 Mesta Plaza,Room 1985,Murcia,MC,30005,ES
146,425 Springview Terrace,18th Floor,Wuning,,,CN
147,63478 Hoffman Trail,Apt 987,Xiamao,,,CN
148,834 Mitchell Place,Room 670,Versailles,A8,78014 CEDEX,FR
149,13 Farragut Park,19th Floor,Rzozów,,32-060,PL
150,4 Daystar Point,Room 588,Liushi,,,CN
151,924 Boyd Plaza,Suite 54,Kaltungo,,,NG
152,61271 Troy Trail,PO Box 93899,Tagbacan Ibaba,,1477,PH
153,77 Gateway Road,Room 212,Nashville,TN,37245,US
154,08502 Esch Lane,2nd Floor,Kasugai,,488-0884,JP
155,90 Rigney Avenue,Apt 1868,Staré Město,,788 32,CZ
156,19 Vahlen Alley,PO Box 11570,Barra de São Francisco,,29800-000,BR
157,36183 Nelson Terrace,Room 1906,Yanacancha,,,PE
158,870 Utah Street,Room 617,Citampian,,,ID
159,7336 Pankratz Court,PO Box 44434,Miskindzha,,368757,RU
160,4397 Donald Hill,18th Floor,Chigoré,,,PA
161,2 Ruskin Drive,Suite 84,Candelaria,,4323,PH
162,09 Westend Circle,12th Floor,København,1084,1058,DK
163,188 Rowland Plaza,14th Floor,Amor,10,2400-772,PT
164,755 Crest Line Center,Room 532,Florencia,,195047,CO
165,09325 Algoma Park,Apt 328,Potelych,,,UA
166,874 Donald Junction,Apt 1398,Porto Real,,27570-000,BR
167,0 Birchwood Lane,Suite 49,Prokuplje,,,RS
168,9 Summit Way,12th Floor,Winneba,,,GH
169,662 American Ash Drive,PO Box 78058,Pidvolochys’k,,,UA
170,49 New Castle Place,18th Floor,Washington,DC,20036,US
171,1477 Badeau Hill,PO Box 22843,Komono,,811-3122,JP
172,0110 Pawling Alley,Apt 35,Xiwei,,,CN
173,8 Hermina Way,Room 23,Matsena,,,NG
174,0 Milwaukee Parkway,6th Floor,Nūbā,,,PS
175,566 Harbort Pass,Suite 8,Greytown,,3500,ZA
176,983 Hagan Trail,PO Box 80010,Xiangfu,,,CN
177,006 Pine View Court,Room 1663,Santa Marcela,,3811,PH
178,9 Graceland Street,PO Box 25060,Mthatha,,5127,ZA
179,6 Shasta Court,Apt 1946,Cilangla,,,ID
180,72 Westerfield Way,7th Floor,Uzda,,,BY
181,47 Muir Alley,PO Box 95741,Qādirpur Rān,,59311,PK
182,69 Oak Drive,Suite 57,Birobidzhan,,152430,RU
183,55326 4th Avenue,PO Box 27622,Fengshan,,,CN
184,5 Daystar Pass,3rd Floor,Campo Maior,,64280-000,BR
185,72 Summit Pass,14th Floor,Saynshand,,,MN
186,2 Orin Crossing,15th Floor,Fonte do Feto,15,2835-526,PT
187,66139 Melvin Terrace,Apt 911,Edissiya,,357870,RU
188,04721 Kim Trail,PO Box 38431,Rongcheng,,,CN
189,2371 Fieldstone Junction,Apt 307,San Benito,,8423,PH
190,39 Derek Junction,Apt 20,Sete Lagoas,,35700-000,BR
191,39 Crowley Crossing,18th Floor,Los Cóndores,,5823,AR
192,7641 Little Fleur Avenue,Suite 55,Concepción de la Barranca,,,HN
193,45966 American Terrace,9th Floor,Huayuan,,,CN
194,69 Eggendart Center,Suite 43,Castelli,,7114,AR
195,215 Larry Hill,Suite 75,Springfield,IL,62705,US
196,89 Schiller Junction,6th Floor,Blois,A3,41976 CEDEX 9,FR
197,0577 Oak Junction,Apt 1594,Hengtang,,,CN
198,5150 Debra Hill,PO Box 84116,Gunungsubang,,,ID
199,28 Mosinee Circle,PO Box 32601,Kadubera,,,ID
200,05 Melody Parkway,Room 1439,San Pedro,,,BO
201,5 Old Gate Pass,PO Box 97415,Bahaodi,,,CN
202,7 Rutledge Point,10th Floor,Yunmenling,,,CN
203,1 Oriole Lane,Room 501,Toubao,,,CN
204,527 Hoffman Way,17th Floor,Colonias Unidas,,3515,AR
205,593 Talisman Court,PO Box 68089,Koryčany,,768 05,CZ
206,8 Jenifer Court,Suite 30,Niaojin,,,CN
207,0434 Messerschmidt Parkway,Apt 694,Daugavpils,,,LV
208,0617 Brown Hill,4th Floor,Yuhang,,,CN
209,244 American Ash Way,Suite 21,Mavingouni,,,KM
210,7112 Green Crossing,Room 1983,Winton,,9741,NZ
211,33049 Scott Lane,Apt 841,Ligang,,,CN
212,50 Doe Crossing Parkway,Suite 32,Tāfuna,,96799,AS
213,7 Loeprich Place,PO Box 87473,Bamencheng,,,CN
214,6 Sommers Point,Suite 76,Poitiers,B7,86042 CEDEX 9,FR
215,1361 Crowley Point,Apt 1423,Kalino,,618245,RU
216,86761 Larry Place,6th Floor,Salogon,,4425,PH
217,36 Forest Run Alley,Suite 49,Philadelphia,PA,19172,US
218,91663 Delladonna Plaza,PO Box 76294,Chimen,,,CN
219,883 Farwell Court,Room 1149,Tegalgunung,,,ID
220,90686 Anhalt Court,Suite 51,Debrecen,HB,4045,HU
221,90 Crowley Pass,Room 144,Jingzhuang,,,CN
222,10542 Kipling Terrace,Suite 58,Rongxi,,,CN
223,145 American Ash Avenue,Room 1607,Shimeitang,,,CN
224,4 High Crossing Terrace,12th Floor,Luofang,,,CN
225,0306 Forest Run Trail,PO Box 48091,Kotabaru,,,ID
226,11 Mallard Road,Apt 133,Erong,,,CN
227,871 Donald Plaza,Suite 3,Magdalena,,4007,PH
228,3 Monument Place,Apt 1927,Alpūrai,,19201,PK
229,1 5th Way,9th Floor,Gongju,,,KR
230,4 Becker Way,PO Box 84484,Paccha,,,PE
231,7 Karstens Plaza,Suite 90,Zolotonosha,,,UA
232,735 Linden Drive,Apt 50,Pangu,,,CN
233,73360 American Point,16th Floor,Kedungtuban,,,ID
234,380 Atwood Junction,Apt 1438,Čejkovice,,671 65,CZ
235,6 Maywood Pass,PO Box 40988,Yixi,,,CN
236,384 Lotheville Point,Apt 101,Rybno,,96-514,PL
237,1 Helena Terrace,Apt 1647,Boavista,17,5030-304,PT
238,1 Schmedeman Lane,Room 1145,Berlin,BE,13088,DE
239,23295 Dixon Street,Room 744,Zalantun,,,CN
240,8858 Almo Pass,5th Floor,Krasnodon,,,UA
241,9 Montana Court,Apt 818,Wangtuan,,,CN
242,53917 Park Meadow Street,Apt 545,Chaparral,,735569,CO
243,0585 Browning Junction,Apt 1784,Daoxian,,,CN
244,3 Claremont Street,Apt 1021,Jinsha,,,CN
245,9 Mccormick Circle,Apt 1276,Calibungan,,2312,PH
246,9255 Dwight Terrace,Suite 78,Limoges,B1,87930 CEDEX 9,FR
247,0 Oneill Lane,Suite 41,Gavarr,,,AM
248,591 Forest Dale Way,PO Box 75195,Gombe,,,UG
249,9 Northport Crossing,4th Floor,Baimi,,,CN
250,39 Dorton Center,11th Floor,Jiulonggang,,,CN
251,57 Shasta Lane,Apt 1518,Bella Vista,,10112,DO
252,65 Mccormick Avenue,13th Floor,Bayan Huxu,,,CN
253,5620 Springview Park,Room 1214,Ngrayun,,,ID
254,95558 Daystar Alley,Suite 61,Surcubamba,,,PE
255,363 Columbus Place,14th Floor,Jiangkou,,,CN
256,165 Dayton Way,Apt 195,Besançon,A6,25071 CEDEX 9,FR
257,96886 Melvin Hill,Apt 1087,Novobiryusinskiy,,665061,RU
258,22 Marcy Avenue,Suite 96,Żelistrzewo,,84-122,PL
259,3 Mayer Alley,17th Floor,Perechyn,,,UA
260,04 Center Pass,Suite 54,Cambará,,86390-000,BR
261,06 Hovde Court,Room 748,Rio Covo ( Santa Eulália ),3,4755-484,PT
262,31063 Veith Center,3rd Floor,Tawangrejo,,,ID
263,18775 Ridgeway Terrace,Apt 1392,Pitomača,,33405,HR
264,13932 Hanover Pass,3rd Floor,Fryazino,,141196,RU
265,81676 Tennessee Junction,Suite 95,Vitória,,29000-000,BR
266,1 Sycamore Lane,PO Box 31674,Itapissuma,,53700-000,BR
267,302 Riverside Pass,Suite 71,Talok,,,ID
268,8648 Graceland Crossing,Room 447,Jiuheyuan,,,CN
269,11369 Eggendart Point,PO Box 13848,Guararapes,,16700-000,BR
270,95812 Mendota Crossing,Apt 66,Watrous,SK,L9T,CA
271,42516 Quincy Hill,Apt 1042,Pepe,,,ID
272,9166 Corry Hill,Room 1371,Xianhe,,,CN
273,0879 Westridge Avenue,17th Floor,Andongrejo,,,ID
274,30604 Messerschmidt Junction,Room 597,Portel,7,7220-357,PT
275,6053 Walton Park,15th Floor,Baiquan,,,CN
276,22 Rutledge Street,Apt 49,Águas Belas,,55340-000,BR
277,38078 Oak Valley Center,15th Floor,Albufeira,8,8200-005,PT
278,2 Nobel Circle,16th Floor,Saint-Quentin,B6,02104 CEDEX,FR
279,02669 Heath Point,Room 329,Troitsk,,428902,RU
280,811 Upham Terrace,Room 1081,Yongfu,,,CN
281,2566 Cascade Point,Apt 501,Cheyenne,WY,82007,US
282,81309 Tennyson Road,Suite 25,Gamping Lor,,,ID
283,9696 Aberg Court,PO Box 30495,Mahaddayweyne,,,SO
284,40882 Pawling Parkway,PO Box 55751,Uromi,,,NG
285,6230 Texas Trail,Suite 26,Siikainen,,29811,FI
286,822 Vidon Parkway,Apt 1806,Mhlume,,,SZ
287,9 Orin Trail,Apt 1402,Kryevidh,,,AL
288,347 Hovde Drive,PO Box 82386,Morgados,15,2865-613,PT
289,10 Memorial Drive,Apt 678,Koreiz,,,UA
290,17 Raven Road,Suite 8,Banyupoh,,,ID
291,64 Mallard Court,PO Box 39557,Gersikputih Tengah,,,ID
292,4312 Ramsey Plaza,Apt 712,Värmdö,AB,139 51,SE
293,3 Mcbride Avenue,Room 388,Krikil,,,ID
294,6824 Gulseth Place,Suite 70,Sindangrasa,,,ID
295,3 Messerschmidt Center,Apt 148,Ketangi,,,ID
296,3 Chinook Crossing,Room 620,Luzern,LU,6005,CH
297,674 Garrison Way,Room 434,San Isidro,CHP,27990,MX
298,70077 4th Park,17th Floor,Mat-i,,9024,PH
299,72648 Barby Road,Room 882,Osa,,618146,RU
300,9 Sachs Center,Room 542,Lugo,GA,27294,ES
301,70 Eagan Road,Apt 1968,Turirejo,,,ID
302,572 Macpherson Way,10th Floor,Jinshi,,,CN
303,6387 Haas Park,Suite 48,Lanlacuni Bajo,,,PE
304,0364 Reinke Alley,Apt 850,Dongtang,,,CN
305,1 Kedzie Circle,PO Box 20203,Lutou,,,CN
306,1 Old Shore Court,Apt 1913,Sandaotong,,,CN
307,28 Bultman Junction,Room 79,Gaimán,,9105,AR
308,36984 Boyd Plaza,Room 1080,Zoumaping,,,CN
309,1587 Eastwood Pass,Suite 98,Opinogóra Górna,,06-406,PL
310,4297 Independence Place,Room 303,Chacapalpa,,,PE
311,5 Schlimgen Crossing,Room 1318,Pingxiang,,,CN
312,941 Lawn Street,Suite 36,Haibeitou,,,CN
313,06 Prentice Terrace,Apt 1800,Asyūţ,,,EG
314,471 Morningstar Avenue,Room 27,Qufu,,,CN
315,62 Di Loreto Crossing,Suite 50,Salerno,CM,84124,IT
316,5 Colorado Plaza,Suite 3,Ruangwa,,,TZ
317,11283 Sheridan Way,Apt 512,Lubenec,,439 83,CZ
318,6 Sutteridge Alley,Apt 1044,Krasnyy Oktyabr’,,601974,RU
319,5330 Spohn Junction,Suite 52,Zhaowanzhuang,,,CN
320,22 Corscot Parkway,Room 1513,Tete,,,MZ
321,9 Mayfield Drive,Room 1931,Lindavista,COA,29557,MX
322,00 Kropf Junction,Suite 36,Gusev,,238056,RU
323,6655 Debra Park,Apt 1453,Jūrmala,,,LV
324,3 Acker Trail,Room 1696,Cijeungjing Kaler,,,ID
325,92 Anthes Hill,Room 1019,Xiaocun,,,CN
326,83784 Welch Circle,Apt 1290,Santo Antônio da Platina,,86430-000,BR
327,8609 Ridgeview Plaza,Room 777,Mesquite,TX,75185,US
328,5 Oak Junction,Room 427,Tufang,,,CN
329,33921 Forster Junction,Room 1871,Ipoh,PRK,30760,MY
330,0650 Miller Street,Suite 20,Tsimasham,,,BT
331,903 Mesta Drive,13th Floor,Baton Rouge,LA,70836,US
332,9332 Oak Place,Suite 74,Lenakapa,,,ID
333,2366 Anderson Way,15th Floor,Yutan,,,CN
334,77910 Muir Pass,20th Floor,Huamali,,,PE
335,2444 Dorton Court,Apt 584,Wawa,,,NG
336,889 Golf View Hill,Suite 67,Changhao,,,CN
337,331 Shelley Crossing,18th Floor,Kole,,,UG
338,354 Russell Street,Apt 1598,Ilovlya,,403070,RU
339,1329 Homewood Center,Apt 1180,Saint-Denis,RE,97471 CEDEX,RE
340,013 Myrtle Terrace,Suite 20,Pajić Polje,,,BA
341,2723 Meadow Ridge Trail,PO Box 93162,Tsinandali,,,GE
342,1143 North Lane,Room 834,Sanhe,,,CN
343,8302 Maple Wood Pass,4th Floor,Duwakbuter,,,ID
344,97004 Golf View Drive,Suite 85,Pawłowiczki,,47-280,PL
345,623 Luster Plaza,PO Box 36587,Mladá Boleslav,,511 01,CZ
346,1 Elmside Hill,Room 57,Puricay,,9713,PH
347,3324 Farwell Road,Room 925,Fresno,CA,93726,US
348,5743 Crowley Plaza,Apt 1203,Bačka Palanka,,,RS
349,24 Jay Way,Room 1615,Xi’an,,,CN
350,684 Ridgeway Circle,Apt 719,Thị Trấn Hùng Quốc,,,VN
351,57 Victoria Street,Apt 1591,Helong,,,CN
352,3 Comanche Way,Suite 81,Babice,,37-754,PL
353,83074 Utah Hill,Suite 80,Shangsha,,,CN
354,0 Brickson Park Court,Apt 1957,Del Valle,VER,92125,MX
355,33129 Fieldstone Crossing,Suite 19,Arcena,11,2615-221,PT
356,62947 Mockingbird Parkway,Apt 846,Fëdorovskoye,,196625,RU
357,8 Vidon Way,Apt 1710,Tōgane,,289-1343,JP
358,39781 Oriole Point,12th Floor,Velasco Ibarra,,,EC
359,931 Springview Junction,Room 1334,Saint-Sauveur,QC,J0R,CA
360,8 Eagan Place,16th Floor,Rupe,,,ID
361,44240 Basil Point,16th Floor,Ramos,,2311,PH
362,1 Meadow Vale Point,15th Floor,Marugame,,870-0122,JP
363,1661 Green Ridge Lane,16th Floor,Älvdalen,W,796 25,SE
364,0870 Linden Park,1st Floor,Ntobo,,,ID
365,11218 Hoard Pass,Apt 705,Lupak,,,ID
366,41145 Cherokee Avenue,PO Box 9496,Lynn,MA,1905,US
367,266 Bobwhite Terrace,Room 317,Nice,B8,06073 CEDEX 1,FR
368,430 Artisan Terrace,13th Floor,Dampit Satu,,,ID
369,74854 Forster Way,PO Box 2523,Tunal,,,PE
370,2 Main Parkway,19th Floor,Huaiyuan Chengguanzhen,,,CN
371,07763 Logan Center,Suite 66,Aoyang,,,CN
372,3 Gulseth Avenue,16th Floor,Tymoshivka,,,UA
373,0705 Rigney Way,Apt 4,San Rafael,,5039,PH
374,94 Arapahoe Terrace,PO Box 40878,Babantar,,,ID
375,06952 Laurel Parkway,4th Floor,Puncan,,9317,PH
376,0 Buell Pass,PO Box 72723,Kazo,,365-0023,JP
377,8 Lotheville Court,3rd Floor,Faqqū‘ah,,,PS
378,4 Michigan Alley,Suite 15,Carpalho,10,2425-417,PT
379,1200 Thackeray Drive,Apt 1710,Xinfeng,,,CN
380,172 Arkansas Center,17th Floor,Bernal,,,PE
381,9 Meadow Vale Parkway,Room 1030,São Lourenço,,37470-000,BR
382,446 Huxley Terrace,20th Floor,Douba,,,CN
383,86291 Thackeray Hill,12th Floor,Fond du Sac,,,MU
384,9 Anzinger Alley,Apt 536,Yanjiang,,,CN
385,63 Dunning Avenue,Suite 80,Ōyama,,437-1604,JP
386,01 Nancy Plaza,Suite 77,Aknoul,,,MA
387,186 Daystar Drive,Suite 26,Antipolo,,2816,PH
388,908 Schmedeman Place,Room 960,Aserrío de Gariché,,,PA
389,72005 Tennessee Plaza,PO Box 45011,Béziers,A9,34545 CEDEX,FR
390,52 American Point,PO Box 31928,Sanpai,,,CN
391,36207 Cardinal Center,PO Box 95244,Amieirinha,10,2430-024,PT
392,30349 3rd Place,PO Box 92101,Rūdiškės,,21016,LT
393,26 Butterfield Circle,Apt 590,Mobile,AL,36670,US
394,1 Grover Place,Apt 87,Czchów,,32-860,PL
395,51273 Hooker Alley,PO Box 66620,Potulando,,,ID
396,1635 Clarendon Pass,PO Box 77599,Arujá,,07400-000,BR
397,5496 Schmedeman Road,Apt 1497,Mamara,,,PE
398,70 Johnson Court,Suite 82,Nagutskoye,,357239,RU
399,5 Rockefeller Road,Apt 838,Jiuxian,,,CN
400,187 1st Terrace,5th Floor,Qionghu,,,CN
401,26920 Meadow Vale Place,Suite 79,Glória do Goitá,,55620-000,BR
402,5 Morrow Road,Apt 1504,Vysoké Mýto,,566 01,CZ
403,5322 Derek Park,Apt 1526,Ljungskile,O,459 30,SE
404,8 Sauthoff Trail,Apt 1778,Quartier Morin,,,HT
405,3958 American Pass,18th Floor,Laḩij,,,YE
406,11464 Maple Way,PO Box 5909,Dolní Černilov,,503 03,CZ
407,61659 Northland Park,PO Box 58920,Angers,B5,49937 CEDEX 9,FR
408,7994 Hanson Road,Room 275,Qindu,,,CN
409,570 Vahlen Hill,Room 854,Czerniewice,,97-216,PL
410,36205 Carpenter Plaza,PO Box 10362,Gandu,,,ID
411,318 Welch Street,10th Floor,Tazhuang,,,CN
412,6233 Center Avenue,Room 1603,Lévis,QC,G6W,CA
413,105 Clarendon Point,PO Box 58659,Duantan,,,CN
414,5986 Superior Alley,Apt 46,Nigríta,,,GR
415,2 Eastwood Avenue,Room 1687,Banjar Beratan,,,ID
416,3952 Village Trail,Suite 83,Brańsk,,17-120,PL
417,4 Acker Parkway,Room 454,Yangliu,,,CN
418,63516 Evergreen Pass,PO Box 8813,Chuanxi,,,CN
419,40 Anderson Place,Suite 76,Sindangjati,,,ID
420,706 Hermina Street,Apt 538,Sillon,,6532,PH
421,403 Beilfuss Alley,Room 1811,Vetlanda,F,574 35,SE
422,04 Melrose Pass,Room 1066,H̱olon,,,IL
423,97890 Pond Pass,Suite 49,Tallahassee,FL,32314,US
424,414 Rutledge Road,Room 410,Liuche,,,CN
425,2229 Sullivan Plaza,Suite 36,Podkamennaya Tunguska,,663246,RU
426,8 Sommers Park,Apt 1127,Sutton,QC,J5B,CA
427,3 Bunting Pass,Room 774,La Libertad,,7119,PH
428,0 Sutherland Center,Room 924,Altavista,TAM,87900,MX
429,7 Forest Circle,Apt 1778,Lianhe,,,CN
430,490 Shasta Drive,Apt 1299,Cherven Bryag,,5994,BG
431,1 Almo Court,Suite 46,Shahkot,,39630,PK
432,95 7th Drive,16th Floor,Mê Linh,,,VN
433,57 Dorton Terrace,Apt 1120,Amboasary,,,MG
434,99200 Sachs Pass,Suite 28,Malko Tŭrnovo,,8359,BG
435,6 Hollow Ridge Avenue,PO Box 74711,Sol’tsy,,175040,RU
436,44 Meadow Vale Trail,Suite 60,Kastsyukovichy,,,BY
437,795 Ohio Lane,Room 1977,Ormož,,2270,SI
438,630 Springview Alley,Suite 68,Rogóźno,,86-318,PL
439,94 Loomis Drive,PO Box 4303,Porteirinha,,39520-000,BR
440,557 Moose Place,Room 1332,Charneca da Cotovia,15,2970-833,PT
441,49338 Debs Avenue,PO Box 27556,Muang Long,,,LA
442,03 Lindbergh Pass,Room 301,Fabianki,,87-811,PL
443,26 Kropf Street,PO Box 17594,Ampatuan,,9609,PH
444,9687 Fulton Junction,Suite 8,Hongshanzui,,,CN
445,4960 Oak Valley Way,Suite 16,Warin Chamrap,,76110,TH
446,717 Barby Avenue,PO Box 65939,Bongor,,,TD
447,6 Elka Parkway,PO Box 71110,Changfeng,,,CN
448,256 Park Meadow Park,17th Floor,Mbalmayo,,,CM
449,3177 Kropf Park,6th Floor,Dún Laoghaire,,A96,IE
450,3 Corry Alley,PO Box 67256,Tongqiao,,,CN
451,5 Browning Way,9th Floor,Subrag,,,CN
452,089 Arapahoe Drive,Apt 577,Springbok,,8893,ZA
453,69438 Logan Parkway,PO Box 56961,Bolong,,5001,PH
454,6140 Ronald Regan Lane,2nd Floor,Bang Nam Priao,,44130,TH
455,70228 Gateway Place,Room 1880,Kubangkondang,,,ID
456,2435 Corben Circle,PO Box 86012,Hirado,,276-0017,JP
457,130 Crest Line Lane,Apt 869,Łobodno,,42-125,PL
458,75882 Kedzie Crossing,Suite 7,Calvão,1,3840-045,PT
459,078 West Pass,Room 294,Arlington,TX,76011,US
460,4210 Northland Circle,7th Floor,Qinggang,,,CN
461,73031 Stephen Hill,8th Floor,Banzhong,,,CN
462,0503 Canary Center,Room 1036,Hwangju-ŭp,,,KP
463,8 Mendota Place,PO Box 43775,Quintã,13,4620-729,PT
464,37415 Ramsey Street,Apt 1807,Krouna,,539 43,CZ
465,544 Shoshone Alley,Room 1382,Susuman,,686314,RU
466,298 Sage Alley,PO Box 7229,Concord,ON,L4K,CA
467,5372 Kinsman Hill,2nd Floor,Kalipucang,,,ID
468,5 Brown Center,Apt 1159,Linghu,,,CN
469,1 Rutledge Pass,Apt 120,Xuguang,,,CN
470,08 David Hill,11th Floor,Cernache do Bonjardim,5,6100-253,PT
471,0204 Emmet Road,Room 1814,Ludvika,W,771 24,SE
472,4332 Union Parkway,Apt 931,Salto,,13320-000,BR
473,081 Muir Place,PO Box 54115,Mieszkowice,,74-505,PL
474,118 Badeau Pass,Suite 15,Picassinos,10,2430-418,PT
475,401 Pond Pass,5th Floor,Carrizal,,,VE
476,1 Clove Park,PO Box 80030,'s-Hertogenbosch,6,5234,NL
477,6 Harper Avenue,Apt 1127,Citeureup,,,ID
478,21145 John Wall Junction,Apt 70,Tembau,,,ID
479,623 5th Crossing,PO Box 52125,Bacheng,,,CN
480,8 Chinook Trail,13th Floor,Qixingtai,,,CN
481,92359 Gulseth Terrace,Room 456,Checun,,,CN
482,2899 Rigney Parkway,7th Floor,Bolekhiv,,,UA
483,72571 Londonderry Alley,Apt 980,Boden,BD,961 73,SE
484,90 Larry Center,Room 1669,Béré,,,TD
485,7328 Michigan Street,12th Floor,Siraway,,7121,PH
486,45 Blue Bill Park Lane,PO Box 29551,Pavlovskaya,,353147,RU
487,10 Grim Terrace,Room 1710,Tolitoli,,,ID
488,48 Chive Avenue,PO Box 19683,Chengjiao,,,CN
489,2855 Shasta Lane,PO Box 33112,Varva,,,UA
490,591 Transport Alley,Apt 1921,Chenguang,,,CN
491,00 Bartillon Hill,Apt 541,Itapevi,,06650-000,BR
492,910 Goodland Point,Suite 13,Dingshu,,,CN
493,9101 Kings Avenue,10th Floor,Ebu,,,CN
494,2892 Huxley Terrace,Suite 49,Rybatskoye,,196851,RU
495,59 Larry Street,PO Box 96921,Bintang,,,ID
496,82605 Grasskamp Alley,Room 1952,Piracicaba,,13400-000,BR
497,776 Oneill Plaza,Room 1239,Satsumasendai,,899-1922,JP
498,0 Novick Plaza,Suite 28,Texistepeque,,,SV
499,758 Arkansas Junction,Apt 876,Weifang,,,CN
500,3 Steensland Court,Room 1061,Wanzu,,,CN
501,82 Crownhardt Junction,Suite 12,Zarumilla,,,PE
502,9 Center Center,Room 1632,Suban Jeriji,,,ID
503,24 Mcguire Center,PO Box 83687,Nyzhni Petrivtsi,,,UA
504,044 Lerdahl Park,Room 1811,Meishan,,,CN
505,63 Eliot Trail,Suite 38,Tymoshivka,,,UA
506,62523 Lerdahl Hill,4th Floor,Morteros,,2421,AR
507,2323 Commercial Avenue,Room 948,Dzhetygara,,,KZ
508,0060 Jay Center,14th Floor,Chigasaki,,253-0041,JP
509,354 Homewood Point,13th Floor,Jaguarari,,48960-000,BR
510,4155 Fordem Road,Apt 1192,Paine,,,CL
511,62 Pankratz Park,PO Box 31374,Huasta,,,PE
512,32651 Grasskamp Plaza,13th Floor,Shuyuan,,,CN
513,3 Hudson Center,PO Box 2095,Ryczów,,34-115,PL
514,5708 Mcguire Pass,Suite 69,Armação de Pêra,8,8365-105,PT
515,1 Briar Crest Way,13th Floor,Ait Ali,15,15103,DZ
516,68 Towne Street,PO Box 44035,Knyaginino,,606340,RU
517,2211 Springs Court,Apt 549,Siborong-borong,,,ID
518,8 Fuller Court,Room 1722,Tintafor,,,SL
519,957 Pennsylvania Court,Apt 292,Notre-Dame-de-l'Île-Perrot,QC,H9X,CA
520,7 Nova Pass,13th Floor,Sinjār,,,SY
521,86546 Bartillon Trail,PO Box 70081,Arujá,,07400-000,BR
522,9596 Oak Valley Parkway,Suite 98,Tyringe,M,282 91,SE
523,47 Sullivan Place,Suite 43,Magan,,677904,RU
524,84671 Pennsylvania Lane,Suite 80,Apucarana,,86800-000,BR
525,865 Harbort Drive,Apt 413,Vojkovice,,739 51,CZ
526,304 Eagle Crest Place,5th Floor,Raksajaya,,,ID
527,6 Schlimgen Hill,Apt 1289,Adzopé,,,CI
528,53290 Northridge Crossing,PO Box 96946,Xinchong,,,CN
529,05802 Pierstorff Court,Apt 922,Majunying,,,CN
530,14 Old Gate Street,Room 979,Turpay,,,PE
531,49653 Hazelcrest Parkway,PO Box 19162,Putrajaya,PJY,62576,MY
532,93785 Ridgeway Street,PO Box 47065,Shiquan,,,CN
533,849 Larry Court,PO Box 93971,Lamalewo,,,ID
534,37 Morningstar Trail,PO Box 89279,Xiaolan,,,CN
535,622 Namekagon Park,4th Floor,Karanganyar,,,ID
536,8 Upham Circle,18th Floor,Banqiao,,,CN
537,63 Nelson Road,PO Box 66661,Olo,,,ID
538,575 Buell Avenue,7th Floor,Oesapa,,,ID
539,8 Waywood Crossing,Suite 71,Lipinki Łużyckie,,68-213,PL
540,2018 Tennyson Park,PO Box 95097,Waiwejak,,,ID
541,8 Bowman Center,Suite 94,Périgueux,97,24004 CEDEX,FR
542,8 Melody Place,Suite 80,Danchang,,,CN
543,7069 Hoard Street,Room 942,Alannay,,3524,PH
544,5023 Dixon Avenue,PO Box 23449,Nyaungdon,,,MM
545,525 Buena Vista Terrace,Room 1694,Skënderbegas,,,AL
546,939 Roth Alley,PO Box 1637,Stuttgart Stuttgart-Mitte,BW,70180,DE
547,77 Bellgrove Avenue,Apt 1558,Longcheng,,,CN
548,48327 Mayer Plaza,15th Floor,Guernica,,1862,AR
549,2 Pawling Plaza,20th Floor,Sergach,,607529,RU
550,17952 Northland Road,Apt 160,Shtip,,2000,MK
551,2 Superior Street,13th Floor,Chŏngju,,,KP
552,41 Morning Hill,8th Floor,Karajeun,,,ID
553,5 New Castle Avenue,PO Box 49169,La Caleta Culebras,,,PE
554,4 Charing Cross Hill,18th Floor,Al Ma‘allā’,,,YE
555,33628 Continental Way,Apt 601,Shuitianzhuang,,,CN
556,589 Del Sol Hill,19th Floor,Metz,B2,57076 CEDEX 03,FR
557,39 Heffernan Terrace,14th Floor,Gondang,,,ID
558,190 Oneill Way,Room 26,Woniuhe,,,CN
559,5881 Surrey Circle,2nd Floor,Gränna,F,563 32,SE
560,1584 Center Way,Apt 1445,Al Abyār,,,LY
561,3150 Hansons Trail,Suite 70,Vikbolandet,E,610 25,SE
562,79 Crest Line Street,PO Box 15213,Sacramento,CA,94297,US
563,4 Toban Way,13th Floor,Ambulong,,5615,PH
564,6 Thompson Park,Apt 1830,Macamic,QC,V6N,CA
565,1 Thackeray Park,15th Floor,Genève,GE,1209,CH
566,0135 Myrtle Center,PO Box 93466,Tange Zhen,,,CN
567,34076 Milwaukee Park,9th Floor,Xingguo,,,CN
568,357 Crescent Oaks Pass,Room 1939,Farasān,,,SA
569,04415 Annamark Drive,Room 1133,Dubăsari,,MD-3714,MD
570,127 Cardinal Crossing,Suite 86,Cachadinha,3,4800-858,PT
571,40944 Ryan Junction,13th Floor,San Narciso,,4313,PH
572,92 Homewood Parkway,Suite 94,Baitian,,,CN
573,16285 Stone Corner Road,12th Floor,Yilan,,,CN
574,2 Sunbrook Plaza,PO Box 64027,Larvik,7,3255,NO
575,92086 Meadow Vale Circle,Apt 1808,Bertioga,,11250-000,BR
576,798 Comanche Park,2nd Floor,Bayanbaraat,,,MN
577,431 Victoria Trail,Room 103,Arwād,,,SY
578,3819 Kinsman Center,PO Box 58463,Efeng,,,CN
579,62615 Aberg Center,Suite 66,Weyburn,SK,S4H,CA
580,165 Commercial Court,Room 1159,Perm,,614097,RU
581,316 Hanover Trail,PO Box 37565,Yuquan,,,CN
582,211 Packers Alley,Suite 50,Kostrzyn nad Odrą,,66-470,PL
583,52 Manitowish Parkway,15th Floor,Bajia,,,CN
584,275 Clarendon Terrace,Suite 49,Sitajara,,,PE
585,614 Laurel Court,Suite 32,Lanuza,,8314,PH
586,223 Harbort Street,Room 1485,Atawutung,,,ID
587,133 Redwing Lane,6th Floor,Lianhe,,,CN
588,9527 Glacier Hill Hill,9th Floor,Oyem,,,GA
589,6808 Saint Paul Park,PO Box 86718,Güira de Melena,,,CU
590,14 Elmside Plaza,Suite 38,La Caleta Culebras,,,PE
591,6 Springview Crossing,PO Box 8981,Yantianhe,,,CN
592,0604 Fulton Court,Apt 417,Cibatu,,,ID
593,08 Michigan Terrace,11th Floor,Carazinho,,99500-000,BR
594,2 Mallard Way,Suite 44,Sabana Grande,,,VE
595,3634 Buell Lane,Room 1573,Matriz de Camaragibe,,57910-000,BR
596,36 1st Way,Room 382,Mrągowo,,11-709,PL
597,18 Maple Wood Avenue,Suite 77,Padurung,,,ID
598,980 Eliot Point,Suite 46,Tumbagaan,,1114,PH
599,4166 South Crossing,5th Floor,Jatiwangi,,,ID
600,8 Elka Pass,Suite 74,Khemarat,,34170,TH
601,13 Monterey Street,Suite 57,Ribeiro,13,4600-758,PT
602,6665 Golf Course Pass,Suite 77,Bacnar,,7010,PH
603,864 Cherokee Junction,19th Floor,Fangjun,,,CN
604,3 Declaration Road,Suite 96,Sangiang,,,ID
605,8 Vahlen Hill,Suite 23,Kirovohrad,,,UA
606,2186 Northport Court,Room 1597,Thị Trấn Phú Mỹ,,,VN
607,7190 Sachtjen Street,Room 1589,Tournai,WAL,7504,BE
608,7311 Marquette Drive,Room 1769,Idrija,,5280,SI
609,09 Waubesa Road,Room 1733,Kalampáka,,,GR
610,918 Forster Junction,16th Floor,Cikembar,,,ID
611,90 Prairieview Terrace,Apt 1878,Muararupit,,,ID
612,8380 North Junction,Suite 37,Sidokumpul,,,ID
613,5 Main Hill,Room 224,Tommot,,678953,RU
614,4 Golf Course Circle,6th Floor,Papringan,,,ID
615,9197 Commercial Street,Room 1349,Mbocayaty,,,PY
616,878 Sugar Park,Suite 79,Moca,,11803,DO
617,98 Browning Plaza,Suite 16,Głogówek,,48-250,PL
618,5 Dwight Junction,17th Floor,Neuquén,,8300,AR
619,4 Anderson Road,Apt 34,Quibdó,,270009,CO
620,117 Mcbride Parkway,Room 70,Penanggal,,,ID
621,70572 Prentice Crossing,Apt 1288,Rodnikovskaya,,357565,RU
622,30 Duke Parkway,Suite 27,Zhutuo,,,CN
623,611 Ridgeway Street,Room 1051,Chabany,,,UA
624,26243 Oakridge Place,PO Box 91355,Chengxiang,,,CN
625,009 Monica Crossing,Room 337,Colca,,,PE
626,154 Bay Center,8th Floor,Le Blanc-Mesnil,A8,93591 CEDEX,FR
627,9303 Oak Pass,2nd Floor,Suban,,,CN
628,81773 Morning Parkway,10th Floor,Graz,6,8047,AT
629,7 Northport Drive,PO Box 10162,Huta Stara B,,42-262,PL
630,494 Kensington Trail,2nd Floor,Kiikala,,25390,FI
631,43 Lakewood Crossing,Suite 41,Sukth,,,AL
632,98 Ridge Oak Lane,Suite 54,Dishnā,,,EG
633,3963 Holy Cross Street,10th Floor,Az Zuwaytīnah,,,LY
634,4577 American Road,Apt 1464,Thompson,MB,R8N,CA
635,3745 Westport Place,Room 67,Wintzenheim,C1,68925 CEDEX,FR
636,108 Forest Junction,8th Floor,Huanggang,,,CN
637,8772 Oriole Center,16th Floor,Yaozhanzi,,,CN
638,7319 Clove Way,PO Box 79160,Huangyang,,,CN
639,7 Colorado Avenue,6th Floor,Dahu Satu,,,ID
640,3 Hallows Court,PO Box 70861,Bida,,,NG
641,3247 Delaware Street,PO Box 9874,Ushirombo,,,TZ
642,4863 Bowman Point,Apt 262,Rogóźno,,86-318,PL
643,46 Transport Court,Room 360,Göteborg,O,413 11,SE
644,708 Bellgrove Place,10th Floor,Tabia,,,MA
645,4143 Jackson Drive,Room 192,Wołczyn,,46-250,PL
646,326 Kingsford Park,PO Box 8490,Pantian,,,CN
647,0 Saint Paul Avenue,Suite 99,Tahara,,879-7305,JP
648,19002 Pawling Pass,PO Box 7092,Dongli,,,CN
649,3 Portage Way,PO Box 43950,Kadukandel,,,ID
650,77 Longview Avenue,Suite 17,Pejibaye,,11907,CR
651,7 Cordelia Hill,PO Box 82753,São Tomé,,,ST
652,96 Orin Alley,PO Box 89365,Vierzon,A3,18104 CEDEX,FR
653,9881 Norway Maple Trail,11th Floor,Yangxiang,,,CN
654,1 Bartelt Drive,Room 554,Sudzha,,307831,RU
655,23 Maryland Way,Apt 1380,Boundiali,,,CI
656,58 Laurel Way,Room 1787,Ronov nad Doubravou,,538 42,CZ
657,168 Pond Crossing,PO Box 65855,Awayan,,,ID
658,869 Cordelia Park,20th Floor,Sapeken,,,ID
659,58294 Melrose Circle,2nd Floor,Meicheng,,,CN
660,80 Warner Avenue,Apt 698,Alajuelita,,11001,CR
661,080 Fremont Pass,6th Floor,Bromma,AB,167 74,SE
662,2 Norway Maple Circle,Suite 68,Kvänum,O,535 91,SE
663,0 Straubel Parkway,Suite 60,Kebonbencoy,,,ID
664,33 Graedel Trail,PO Box 32062,Adraskan,,,AF
665,446 Almo Circle,2nd Floor,Huazhu,,,CN
666,70 Lighthouse Bay Avenue,Suite 92,São Pedro,3,4830-264,PT
667,44571 Nova Lane,Room 531,Haocun,,,CN
668,0567 Killdeer Drive,PO Box 40353,Barrunchal,11,2710-151,PT
669,642 Grover Trail,5th Floor,Staraya Stanitsa,,396458,RU
670,45359 Esker Plaza,Room 1779,Rosario,,8504,PH
671,094 Atwood Drive,Suite 73,Yaojiagou,,,CN
672,2 Old Shore Center,Apt 848,Vineuil,A3,41355 CEDEX,FR
673,3 Ludington Drive,20th Floor,Bayasgalant,,,MN
674,97022 Manufacturers Court,Apt 1497,Gimcheon,,,KR
675,8317 Fuller Road,PO Box 12774,Cikuning,,,ID
676,190 Moland Hill,Room 514,Bitung,,,ID
677,54392 Luster Way,Room 277,Rouen,A7,76418 CEDEX 9,FR
678,250 5th Crossing,Room 1510,Schiltigheim,C1,67311 CEDEX,FR
679,5726 Logan Street,PO Box 58590,Macayug,,5417,PH
680,30 Merry Parkway,3rd Floor,Maiorca,6,3090-469,PT
681,3967 Summerview Point,PO Box 75543,Mainit,,8407,PH
682,10628 Fair Oaks Point,Room 401,Iperu,,,NG
683,89 Anthes Court,Apt 1388,Xiniqi,,,CN
684,4373 Oriole Circle,Suite 64,Salavat,,453259,RU
685,8063 Lakewood Hill,Room 555,Joyabaj,,14012,GT
686,642 Canary Court,Room 627,Cosne-Cours-sur-Loire,A1,58209 CEDEX,FR
687,958 Hanover Parkway,PO Box 93679,Goussainville,A8,95194 CEDEX,FR
688,0009 Katie Center,PO Box 61715,Kembang,,,ID
689,5 Maple Wood Avenue,Suite 60,Quintães,13,4620-620,PT
690,2889 Rigney Parkway,Suite 99,Corona,CA,92878,US
691,888 Corben Avenue,Apt 1724,Épernay,A4,51209 CEDEX,FR
692,10310 Fair Oaks Street,Suite 48,Akhaldaba,,,GE
693,4677 Scoville Court,Suite 12,Bissen,,L-7794,LU
694,091 Helena Drive,Apt 1835,Cartagena,,130027,CO
695,2 Scott Plaza,PO Box 19924,Nunutba,,,ID
696,0329 West Court,Suite 19,Priboj,,,RS
697,28 Waubesa Drive,Apt 218,Teuva,,64701,FI
698,2246 Declaration Hill,Apt 1269,Tegallega,,,ID
699,07 Nova Center,Apt 1869,Tongyuanpu,,,CN
700,7697 Sachtjen Crossing,Suite 75,Gonghe,,,CN
701,6 Loeprich Court,Apt 241,Priekulė,,96047,LT
702,19 Rowland Drive,13th Floor,Dois Vizinhos,,85660-000,BR
703,07863 Elka Point,Suite 97,Diawara,,,SN
704,25 Pine View Street,Apt 1212,Berthierville,QC,S3N,CA
705,71 Superior Hill,Apt 743,Tianchi,,,CN
706,53 Lyons Pass,Suite 37,Yihe,,,CN
707,8814 Loftsgordon Circle,PO Box 63022,Talisayan,,9012,PH
708,05031 Hagan Center,Room 737,Liji,,,CN
709,0 Schurz Pass,Room 74,Anqing,,,CN
710,625 Pepper Wood Trail,PO Box 78479,Changqiao,,,CN
711,656 Marquette Court,PO Box 89744,Guadalupe,,3510,PH
712,1 Welch Point,Suite 77,La Virtud,,,HN
713,88743 Arapahoe Trail,PO Box 71717,Nanhai,,,CN
714,87242 Glendale Plaza,Room 1617,Obo,,,CF
715,6672 Washington Way,Suite 67,Osielec,,34-234,PL
716,163 Chinook Circle,Apt 50,Fonteleite,13,4745-530,PT
717,70304 Dwight Road,Apt 316,Boynton Beach,FL,33436,US
718,2673 Southridge Avenue,20th Floor,Gachalá,,251257,CO
719,29089 Rowland Pass,Apt 1954,Killorglin,,H14,IE
720,5481 Pennsylvania Trail,20th Floor,Zhuting,,,CN
721,5 Eagan Circle,Room 821,Buyant,,,MN
722,4110 Red Cloud Parkway,Apt 355,Vamvakoú,,,GR
723,4649 Namekagon Junction,PO Box 50801,Puncakwangi,,,ID
724,072 Morning Crossing,PO Box 77085,Baqiao,,,CN
725,86 Bluestem Lane,PO Box 56763,Pánormos,,,GR
726,8 Russell Drive,PO Box 90469,Oslo,3,1257,NO
727,74 Holy Cross Place,Room 446,Barayong,,4500,PH
728,65 Banding Alley,PO Box 35338,Huangbao,,,CN
729,7859 Miller Lane,Apt 633,Łubniany,,46-024,PL
730,1633 Ilene Hill,Room 1326,Ipoh,PRK,30760,MY
731,88745 Lukken Point,14th Floor,Göteborg,O,418 03,SE
732,83 Anthes Street,Room 1651,Buni Yadi,,,NG
733,29337 Shelley Hill,Room 960,Krajan Ngerdani,,,ID
734,0015 Welch Place,Room 907,Krajan,,,ID
735,95 1st Avenue,Suite 32,Duishan,,,CN
736,38 Loftsgordon Circle,Room 1535,Oro Timur,,,ID
737,7898 Trailsway Parkway,14th Floor,Ossora,,688700,RU
738,42752 Bay Lane,Room 1201,Rufino,,6100,AR
739,6 Crownhardt Crossing,Suite 62,Vila Nova,17,5445-072,PT
740,63 Clyde Gallagher Terrace,Room 1851,San Antonio,,6407,PH
741,65621 Clove Lane,PO Box 33446,Torrance,CA,90505,US
742,64623 Kensington Court,1st Floor,Dashiqiao,,,CN
743,79 Pawling Hill,Apt 1003,Az Zuwaytīnah,,,LY
744,019 Knutson Court,5th Floor,Berezovo,,,UA
745,40 Eastlawn Center,PO Box 69142,Gangmian,,,CN
746,97 Beilfuss Park,PO Box 27500,Jungkat Selatan,,,ID
747,136 North Center,17th Floor,Yangshan,,,CN
748,074 Summit Crossing,PO Box 52560,Trairi,,62690-000,BR
749,54794 Killdeer Place,Room 1446,Adygeysk,,385202,RU
750,03 Sheridan Plaza,Apt 498,Budrus,,,PS
751,17070 Almo Drive,8th Floor,Pulupandan,,6102,PH
752,5250 Clyde Gallagher Terrace,PO Box 48046,Cihaladan,,,ID
753,31 Hanover Alley,Apt 584,Zuolan,,,CN
754,140 Dorton Drive,Apt 1265,Bagneux,A8,92224 CEDEX,FR
755,38329 Florence Place,Apt 1541,Lanjaghbyur,,,AM
756,16598 Golf Junction,9th Floor,Viimsi,,,EE
757,31706 Dawn Lane,20th Floor,Surami,,,GE
758,19 Canary Drive,17th Floor,Hagonoy,,8006,PH
759,2 Hayes Pass,Suite 66,Growong Kidul,,,ID
760,6 Clove Center,4th Floor,San Fernando,,8711,PH
761,0 Hagan Drive,Room 1929,Boyeros,,,CU
762,11 Surrey Junction,Apt 1174,Quvasoy,,,UZ
763,6583 Ridge Oak Terrace,PO Box 907,Волочаевское,,238346,RU
764,8172 Clyde Gallagher Circle,Room 800,Socorro,,13960-000,BR
765,8 Rieder Court,Suite 2,Cibanten,,,ID
766,234 Bashford Road,7th Floor,Argostólion,,,GR
767,05 Cardinal Court,PO Box 59031,Malusay,,6214,PH
768,88 Jackson Center,Room 540,Wenjiao,,,CN
769,9 Dakota Road,PO Box 80957,Tabira,,56780-000,BR
770,74326 Scoville Place,5th Floor,Ueno,,959-3213,JP
771,01759 Hintze Drive,PO Box 35349,Puerto Deseado,,9050,AR
772,9394 Manufacturers Road,Suite 49,Dasht-e Lati,,,IR
773,8 Blue Bill Park Drive,Suite 62,Sison,,8404,PH
774,17 Milwaukee Place,Suite 77,Honglong,,,CN
775,587 Homewood Way,PO Box 54309,George Hill,,,AI
776,679 Columbus Junction,Suite 94,Benito Juarez,VER,91716,MX
777,211 David Pass,5th Floor,Telengsari,,,ID
778,2 Pearson Parkway,20th Floor,Stockholm,AB,116 92,SE
779,85745 John Wall Avenue,Suite 7,Petaling Jaya,SGR,46547,MY
780,07 Sachtjen Avenue,Apt 1854,Shangtian,,,CN
781,72 Buena Vista Place,Apt 1333,Ngurensiti,,,ID
782,23 Union Terrace,19th Floor,Lyeskawka,,,BY
783,34855 Sachs Lane,2nd Floor,Chardonnière,,,HT
784,7586 Fisk Terrace,4th Floor,Centro Habana,,,CU
785,7912 Fremont Place,PO Box 29316,Janūb as Surrah,,,KW
786,3 Fieldstone Hill,PO Box 17949,Ximafang,,,CN
787,58 Meadow Valley Avenue,Room 1886,Courelas Bravas,15,2975-083,PT
788,99 Lakeland Circle,PO Box 37338,Alcalá,,762047,CO
789,330 Lyons Place,PO Box 95547,Colos,2,7630-305,PT
790,7172 Forest Dale Lane,Room 1191,Spanish Town,,,JM
791,82134 Division Pass,PO Box 95478,Valkeakoski,,37630,FI
792,05 Duke Plaza,Room 1465,Altuf’yevskiy,,617724,RU
793,168 Talmadge Hill,5th Floor,Beidu,,,CN
794,2 Express Junction,PO Box 18694,Beizi,,,CN
795,06635 Doe Crossing Alley,16th Floor,Vanadzor,,,AM
796,39894 Bartelt Circle,Suite 16,Rio,13,4615-424,PT
797,679 Surrey Park,PO Box 28108,Vårby,AB,143 42,SE
798,09 Briar Crest Junction,14th Floor,Xiaolong,,,CN
799,38 Paget Drive,Suite 12,Opoczno,,26-301,PL
800,1617 Sycamore Place,Suite 76,Hongch’ŏn,,,KR
801,3321 Melby Court,Suite 45,Tancheng,,,CN
802,64 Dexter Street,Apt 394,Pizarro,,275038,CO
803,09 Mcguire Plaza,Room 1094,Roma,CHP,26834,MX
804,7727 Artisan Way,Suite 7,Pitai,,,ID
805,0284 Spaight Terrace,Room 117,Sofia,,1000,BG
806,4045 Farragut Center,PO Box 45620,Xujia,,,CN
807,428 Forster Avenue,Room 1530,Sicaya,,,PE
808,07 Miller Court,PO Box 11219,Nyagla,,,CN
809,531 Superior Park,Suite 19,Messíni,,,GR
810,5882 School Park,Apt 183,Yilan,,,TW
811,13420 American Ash Pass,Apt 1427,Ust’-Omchug,,666137,RU
812,47156 Di Loreto Street,Suite 22,Cape Town,,8160,ZA
813,10 Anderson Plaza,Apt 1249,Ipoh,PRK,30506,MY
814,0 Debs Street,Apt 395,Ngluwuk,,,ID
815,698 Chive Parkway,Room 708,San Antonio,GUA,37853,MX
816,4137 Loeprich Street,Suite 61,Modot,,,MN
817,65 Coleman Park,PO Box 58639,Mulan,,,CN
818,9478 Maryland Street,Room 1849,Gereykhanovskoye,,368792,RU
819,1141 Nelson Road,Apt 1118,Mtsensk,,303036,RU
820,4069 Mallard Center,PO Box 91125,San Vicente,,6419,PH
821,0056 Grasskamp Place,Apt 1153,Great Neck,NY,11024,US
822,88 Leroy Trail,Suite 88,Pueblo Nuevo,,,PE
823,05411 Monument Circle,Room 698,Desa Borogojol,,,ID
824,7663 Ronald Regan Pass,Room 845,Liuhao,,,CN
825,34451 Hagan Way,Suite 67,Qinling Jieban,,,CN
826,6552 Hanover Alley,Suite 32,Kalchevaya,,,UA
827,015 Graceland Way,PO Box 40532,San Diego,,30302,CR
828,67 Riverside Junction,Room 39,Ledeunu,,,ID
829,6172 Westend Alley,PO Box 40983,Guozhuang,,,CN
830,6863 Meadow Valley Alley,Suite 92,Domoni,,,KM
831,7101 Mcguire Way,Apt 1162,Salekhard,,629008,RU
832,53 Dapin Crossing,Apt 691,Zavoronezhskoye,,393025,RU
833,1203 Maple Wood Plaza,Suite 83,Del Valle,VER,92125,MX
834,807 Atwood Way,Apt 342,Além Paraíba,,36660-000,BR
835,61259 Vernon Center,Room 706,Kugluktuk,NU,T5C,CA
836,08807 Express Parkway,4th Floor,Lyuboml’,,,UA
837,2 Dorton Road,PO Box 15059,Thawat Buri,,40160,TH
838,2 Daystar Hill,Suite 6,Sumberagung,,,ID
839,00470 Mccormick Street,Suite 80,Canelas,1,3865-004,PT
840,7570 Manufacturers Crossing,Apt 994,Dadiharja,,,ID
841,2777 Jackson Lane,Apt 208,"Villa Presidente Frei, Ñuñoa, Santiago, Chile",,,CL
842,2 Manley Center,Apt 780,Dillenburg,HE,35687,DE
843,07 Florence Center,15th Floor,Pustá Polom,,747 69,CZ
844,9 Gale Plaza,Apt 504,Novoaleksandrovsk,,356003,RU
845,4972 Del Mar Park,Apt 1199,Estreito,,65975-000,BR
846,9981 Moulton Street,PO Box 26276,Jiannan,,,CN
847,479 Mockingbird Trail,Room 174,San Clemente,,,CL
848,38 Dakota Road,2nd Floor,Delta del Tigre,,,UY
849,4 Pond Park,5th Floor,Khvalynsk,,412787,RU
850,1542 Butternut Way,PO Box 94166,Ntoke,,,ID
851,5886 Rigney Park,Suite 14,Ulichnoye,,,UA
852,41 Duke Alley,Room 1593,Pervoural’sk,,623109,RU
853,8095 Manitowish Road,Apt 101,Maiac,,MD-4006,MD
854,47845 Comanche Place,Apt 1159,Çlirim,,,AL
855,7141 Manufacturers Court,PO Box 7973,Harper,,,LR
856,05 Graceland Park,Apt 886,Ma‘dān,,,SY
857,1164 Talmadge Place,Apt 976,Pitogo,,7033,PH
858,667 Sutherland Court,14th Floor,Beloyarskiy,,624030,RU
859,805 Blaine Plaza,Suite 64,Fengle,,,CN
860,2 Sage Center,Apt 499,Zvenyhorodka,,,UA
861,694 Union Crossing,PO Box 91654,Zhosaly,,,KZ
862,2639 Fordem Crossing,5th Floor,Sanguanzhai,,,CN
863,045 Forster Lane,Room 725,Svetlyy,,238548,RU
864,494 International Junction,Room 1595,Kuala Lumpur,KUL,50634,MY
865,75627 Evergreen Place,Room 701,Bemposta,3,4730-010,PT
866,637 Fair Oaks Junction,Apt 1509,Shiqiao,,,CN
867,83 Sauthoff Pass,Apt 1329,Psebay,,352585,RU
868,94995 Helena Crossing,12th Floor,Bendan,,,ID
869,5 Dryden Parkway,Apt 202,Dodu Dua,,,ID
870,24 Reinke Crossing,Suite 62,Žatec,,588 62,CZ
871,0 Ramsey Pass,Apt 136,Kamenka,,692608,RU
872,046 Katie Point,8th Floor,Casal Galego,10,2430-084,PT
873,0156 Delaware Park,Apt 1519,Sigou,,,CN
874,44 Anhalt Terrace,PO Box 90405,Kayapa,,3708,PH
875,5181 Lakewood Gardens Center,PO Box 90112,Pakuncen,,,ID
876,00486 Armistice Street,20th Floor,Novomyshastovskaya,,353831,RU
877,9 Straubel Road,Room 913,Tahala,,,MA
878,800 Mifflin Alley,Room 1077,Alor Setar,KDH,5460,MY
879,2043 Stone Corner Terrace,Apt 130,Quivilla,,,PE
880,33407 Kinsman Park,20th Floor,Homeyo,,,ID
881,01 Del Sol Crossing,12th Floor,Lila,,6304,PH
882,623 Bunker Hill Pass,Room 1718,Suqiaoxiang,,,CN
883,2 School Place,Room 1323,Rybí,,742 65,CZ
884,60176 Hollow Ridge Junction,Apt 1735,Jepat Kidul,,,ID
885,5264 Burning Wood Center,2nd Floor,Besukrejo,,,ID
886,07476 Merry Road,PO Box 19639,Tempaling,,,ID
887,779 Iowa Court,Room 1584,Đắk Glei,,,VN
888,62 Cascade Circle,Apt 468,Wenjī,,,ET
889,13 Anzinger Trail,Apt 1434,Tsimlyansk,,347320,RU
890,65513 Sunfield Hill,1st Floor,Luan Balu,,,ID
891,9972 Rigney Alley,PO Box 63966,Madīnat Sittah Uktūbar,,,EG
892,6 Atwood Alley,Apt 94,Adelaide Mail Centre,SA,5899,AU
893,35499 Eagle Crest Park,Room 413,Pasanggrahan,,,ID
894,7 8th Avenue,Suite 53,Repentigny,QC,J6V,CA
895,49 Hooker Parkway,Apt 1188,Wukang,,,CN
896,946 Corscot Park,Suite 19,Kökar,,22730,AX
897,5345 Menomonie Circle,Apt 795,Lutou,,,CN
898,20008 Corscot Avenue,Room 1755,Igarapava,,14540-000,BR
899,881 Park Meadow Parkway,17th Floor,Szczerców,,97-420,PL
900,9 Schmedeman Park,Apt 955,Chengqu,,,CN
901,695 Sunfield Court,Apt 984,Pruszków,,05-804,PL
902,8804 Oak Drive,PO Box 54207,Tampakan,,9507,PH
903,99 Lighthouse Bay Park,PO Box 72978,Wuli,,,CN
904,49 Monica Way,Suite 71,Chunhua,,,CN
905,103 Blackbird Parkway,PO Box 64613,Gritsovskiy,,301679,RU
906,2 7th Lane,Suite 81,Fermoy,,P61,IE
907,10833 Northport Pass,Room 978,Telgawah,,,ID
908,649 Bultman Place,Suite 69,Nowshera Cantonment,,22511,PK
909,307 Comanche Road,PO Box 99823,Cúa,,,VE
910,167 Steensland Junction,15th Floor,Le Mans,B5,72100,FR
911,7 Everett Avenue,6th Floor,Trzebnica,,55-100,PL
912,980 Hauk Plaza,Apt 1819,Mucllo,,,PE
913,90038 Luster Circle,PO Box 67899,Promna,,26-803,PL
914,0 Eastwood Road,PO Box 35183,Agía Foteiní,,,GR
915,24710 Annamark Parkway,PO Box 24426,Muli,,,CN
916,8 Clarendon Road,Suite 92,Velingrad,,4645,BG
917,9 Stuart Crossing,Apt 558,Paltamo,,88300,FI
918,0420 Dahle Crossing,Room 1361,Dhī as Sufāl,,,YE
919,3 Lerdahl Trail,Apt 1349,Varginha,,37000-000,BR
920,46427 Springs Terrace,14th Floor,Paraparaumu,,5254,NZ
921,85 Carey Terrace,Room 1648,Sanlifan,,,CN
922,96 Kennedy Avenue,8th Floor,Barreiros,13,4615-492,PT
923,981 Duke Hill,Apt 893,Kraljevo,,,RS
924,49352 Tennyson Place,PO Box 31523,Sangiyn Dalay,,,MN
925,96616 Clove Plaza,PO Box 65626,Patrocínio,,38740-000,BR
926,0 Cambridge Point,Room 1468,Zīrakī,,,AF
927,272 Manitowish Center,Suite 22,Keleng,,,ID
928,6 Claremont Plaza,PO Box 69631,Arlöv,M,232 24,SE
929,60652 Mcbride Point,Suite 51,Chipinge,,,ZW
930,73895 Nevada Junction,PO Box 81331,Banjarsari,,,ID
931,3539 Londonderry Drive,Room 1278,Bantul,,,ID
932,04 Vernon Court,Apt 700,Bang Racham,,16130,TH
933,8 Westerfield Lane,Room 1494,Hechun,,,CN
934,118 Ilene Parkway,Room 1680,Huayllabamba,,,PE
935,1900 Monterey Park,5th Floor,Shucheng Chengguanzhen,,,CN
936,296 Kim Park,Room 1789,Quinta,3,4860-077,PT
937,82 Comanche Junction,Room 944,Quibdó,,270009,CO
938,020 Leroy Lane,Suite 82,Victoria,,6406,PH
939,8198 Waywood Crossing,11th Floor,Iúna,,29390-000,BR
940,842 Almo Street,Apt 1127,Skalbmierz,,28-530,PL
941,0 Kedzie Way,Apt 1774,Rancageneng Satu,,,ID
942,715 Thompson Park,Room 110,Muhoroni,,,KE
943,81 Monterey Street,2nd Floor,Hultsfred,H,577 92,SE
944,8 Mallory Crossing,12th Floor,Dambořice,,696 35,CZ
945,9 Melrose Point,Room 497,Dongluqiao,,,CN
946,5 Arkansas Junction,1st Floor,Horki,,,BY
947,5219 Hansons Hill,Suite 49,Prokop’yevsk,,368212,RU
948,61 Loftsgordon Road,Suite 89,Cabittaogan,,2727,PH
949,066 International Avenue,Room 1886,Kampokpok,,6536,PH
950,07279 Northridge Lane,Room 498,Chikushino-shi,,818-0138,JP
951,4 Clove Place,Suite 47,Vacha,,606168,RU
952,25 Ilene Pass,Room 829,Chirkey,,368219,RU
953,83563 Farmco Crossing,12th Floor,Zhongyuanlu,,,CN
954,1 Pearson Way,Room 764,Xhafzotaj,,,AL
955,31986 Redwing Way,PO Box 83399,Cabrobó,,56180-000,BR
956,0562 Del Sol Road,Room 1276,Shapa,,,CN
957,099 Arrowood Terrace,Apt 1999,Citeureup,,,ID
958,5 Cherokee Place,Suite 82,Cimanggu Girang,,,ID
959,05986 Fairview Trail,PO Box 76529,Ulimonong,,,ID
960,842 Logan Terrace,Room 720,Verkhnya Syrovatka,,,UA
961,829 Blue Bill Park Junction,Suite 21,Amaigbo,,,NG
962,68 Shasta Circle,Suite 3,København,1084,1567,DK
963,85 Oriole Avenue,Room 1199,Turar Ryskulov,,,KZ
964,806 Meadow Valley Terrace,Suite 63,Pacajus,,62870-000,BR
965,657 Sunbrook Street,Suite 29,Karlstad,S,651 80,SE
966,49 Village Plaza,Room 1962,Fastiv,,,UA
967,93595 Hallows Pass,Room 383,Ban Mai,,80000,TH
968,4912 Eastlawn Hill,5th Floor,Plewiska,,62-056,PL
969,490 Acker Avenue,PO Box 34402,Yangxu,,,CN
970,8 Morning Drive,Room 1807,Narathiwat,,90220,TH
971,8 Melvin Circle,Suite 71,Curiapo,,,VE
972,49145 Loftsgordon Road,Suite 60,Messíni,,,GR
973,2 Leroy Terrace,Apt 1241,Corrientes,,3400,AR
974,464 Declaration Way,Apt 1761,Longlou,,,CN
975,45819 Jana Court,Apt 1874,Mesquite,TX,75185,US
976,48228 Trailsway Plaza,4th Floor,Hrib-Loški Potok,,2390,SI
977,9716 Lakewood Crossing,Room 333,Sumberingin Kulon,,,ID
978,9 Ruskin Road,PO Box 57868,Arroio do Meio,,95940-000,BR
979,0084 Sycamore Road,Room 1737,Monjas,,21006,GT
980,87034 Stone Corner Lane,Room 1564,Wangxian,,,CN
981,1 Chinook Point,Room 977,Camagüey,,,CU
982,1 Charing Cross Center,PO Box 32987,Ierápetra,,,GR
983,1196 Loomis Terrace,Suite 12,Río Segundo,,5972,AR
984,71 Fuller Pass,Suite 91,Hongmiao,,,CN
985,19 Lukken Circle,18th Floor,Xujia,,,CN
986,44 Meadow Valley Terrace,PO Box 77082,Lingquan,,,CN
987,003 Melody Court,9th Floor,Volosovo,,188414,RU
988,81 Pankratz Park,Apt 1438,Włoszczowa,,29-100,PL
989,0939 Longview Plaza,Suite 19,Fichē,,,ET
990,45 Blackbird Alley,PO Box 1811,Bosobolo,,,CD
991,4367 Maple Wood Way,Apt 483,Örnsköldsvik,Y,891 30,SE
992,175 Sullivan Center,PO Box 52844,Babiak,,62-620,PL
993,773 Grim Junction,PO Box 33079,Hod HaSharon,,,IL
994,2558 Forster Plaza,Room 1910,Wādī as Sīr,,,JO
995,36 Oak Hill,PO Box 94617,Maceo,,53467,CO
996,499 Warner Pass,PO Box 77028,Rimbo,AB,762 91,SE
997,1377 Esch Pass,Room 148,Nikolayevsk,,624642,RU
998,505 Scofield Lane,PO Box 44505,La Loma,MIC,61663,MX
999,620 Dorton Trail,Room 1609,San Vicente,,6419,PH
1000,902 Troy Way,Suite 27,Aragua de Barcelona,,,VE
